{"type": "FeatureCollection", "features": [{"type": "Feature", "properties": {"id": "bathurst", "length": 6213, "Name": "bathurst", "source": "OpenStreetMap / ODbL"}, "geometry": {"type": "LineString", "coordinates": [[149.5611118, -33.4398733], [149.5611108, -33.4398366], [149.5611056, -33.439817], [149.5610976, -33.4397945], [149.5610837, -33.4397685], [149.561068, -33.4397488], [149.5610486, -33.4397289], [149.5610224, -33.439708], [149.5610016, -33.4396923], [149.5609788, -33.4396785], [149.5609477, -33.4396619], [149.5609144, -33.4396479], [149.5608738, -33.4396374], [149.5608337, -33.4396304], [149.5598428, -33.4394894], [149.5582418, -33.4392655], [149.5560844, -33.4389688], [149.5560193, -33.4389612], [149.5559862, -33.4389614], [149.555954, -33.4389641], [149.5559163, -33.438972], [149.5558858, -33.4389811], [149.5558514, -33.4389948], [149.5558213, -33.4390099], [149.5557925, -33.4390271], [149.555764, -33.4390472], [149.5557355, -33.4390717], [149.555721, -33.4390856], [149.5557088, -33.4390996], [149.5556952, -33.4391202], [149.5556856, -33.4391418], [149.5556741, -33.4391825], [149.5556564, -33.4392561], [149.5554515, -33.4402882], [149.5553953, -33.4405485], [149.5552157, -33.4414121], [149.555185, -33.4415634], [149.5551096, -33.4419222], [149.5549568, -33.4426578], [149.5548154, -33.4433278], [149.5546657, -33.4440517], [149.5546438, -33.4441559], [149.5545756, -33.4444757], [149.5545085, -33.4447993], [149.5544617, -33.4450267], [149.5543449, -33.4455978], [149.5542294, -33.4461592], [149.5541231, -33.4466495], [149.5538708, -33.4478673], [149.5538023, -33.448202], [149.5537665, -33.4483868], [149.5537217, -33.4485948], [149.5537107, -33.4486271], [149.5536972, -33.4486722], [149.5536801, -33.4487139], [149.5536631, -33.4487457], [149.5536375, -33.4487864], [149.5536109, -33.4488206], [149.5535751, -33.4488585], [149.5535373, -33.4488918], [149.5534943, -33.448925], [149.5534727, -33.4489391], [149.5534488, -33.4489548], [149.5533876, -33.4489896], [149.5533159, -33.4490226], [149.5532619, -33.4490434], [149.553197, -33.4490621], [149.5531501, -33.4490717], [149.5530967, -33.44908], [149.5530646, -33.4490839], [149.5529822, -33.4490879], [149.5528909, -33.4490833], [149.5528214, -33.4490749], [149.5527129, -33.4490542], [149.5526136, -33.4490312], [149.5524975, -33.4489979], [149.5524183, -33.4489697], [149.5518869, -33.4487265], [149.5518632, -33.4487152], [149.5509598, -33.4482936], [149.550733, -33.4481896], [149.5504435, -33.4480577], [149.5502815, -33.4479866], [149.5500841, -33.4479035], [149.5499475, -33.4478521], [149.5498759, -33.4478302], [149.5498131, -33.4478183], [149.5497563, -33.4478129], [149.5496892, -33.4478117], [149.5496401, -33.4478132], [149.5495888, -33.4478162], [149.5495069, -33.4478227], [149.5494215, -33.4478328], [149.549363, -33.4478413], [149.5493095, -33.4478515], [149.5492091, -33.447875], [149.5489874, -33.4479378], [149.5489065, -33.4479632], [149.5488634, -33.4479804], [149.5488212, -33.4480015], [149.548787, -33.4480237], [149.5487588, -33.448048], [149.5487398, -33.4480688], [149.548732, -33.4480812], [149.5487083, -33.4481239], [149.548698, -33.4481504], [149.5486898, -33.4481824], [149.5486852, -33.4482136], [149.5486844, -33.4482298], [149.5486856, -33.4482615], [149.5486958, -33.4483108], [149.5487071, -33.4483398], [149.54872, -33.4483641], [149.5487385, -33.4483918], [149.5487595, -33.4484174], [149.5490038, -33.4486514], [149.5491886, -33.4488286], [149.5492301, -33.4488698], [149.5493144, -33.4489564], [149.5493597, -33.44901], [149.5494084, -33.4490823], [149.5494433, -33.449148], [149.5494678, -33.4492065], [149.5494854, -33.4492598], [149.5494988, -33.4493122], [149.549508, -33.4493621], [149.549511, -33.4493962], [149.5495123, -33.4494279], [149.5495114, -33.4494638], [149.5495036, -33.4495925], [149.5494808, -33.4497522], [149.5494545, -33.4499024], [149.5494234, -33.4500526], [149.5493533, -33.4503595], [149.5493143, -33.4504959], [149.549304, -33.4505259], [149.5492905, -33.4505617], [149.5492744, -33.4505985], [149.549254, -33.4506395], [149.549235, -33.4506706], [149.5491974, -33.4507217], [149.5491573, -33.4507669], [149.5491239, -33.4507992], [149.5490912, -33.4508279], [149.5490413, -33.4508646], [149.5489956, -33.4508935], [149.5488752, -33.4509549], [149.5487268, -33.4510142], [149.5484432, -33.4511237], [149.5483573, -33.4511617], [149.5483039, -33.4511891], [149.5482464, -33.4512219], [149.5481978, -33.4512536], [149.5481143, -33.4513126], [149.5480405, -33.4513693], [149.5476777, -33.4516744], [149.5474382, -33.4518885], [149.5473073, -33.4520104], [149.5472219, -33.4520985], [149.5471664, -33.4521658], [149.5471052, -33.4522599], [149.5470603, -33.4523437], [149.547002, -33.4524662], [149.5469281, -33.4526307], [149.5468612, -33.4527946], [149.5468173, -33.4529107], [149.5467942, -33.4529827], [149.5467705, -33.453088], [149.546765, -33.4531305], [149.5467603, -33.4531865], [149.5467593, -33.4532394], [149.54676, -33.4532752], [149.5467638, -33.4533174], [149.5467725, -33.4533833], [149.5467935, -33.4534712], [149.5468246, -33.4535675], [149.5468633, -33.4536586], [149.5469182, -33.4537568], [149.5469547, -33.4538132], [149.5469984, -33.4538753], [149.5470606, -33.4539586], [149.5475027, -33.4545501], [149.5479695, -33.4551684], [149.5480409, -33.4552442], [149.5480957, -33.4552965], [149.5481264, -33.4553242], [149.5481788, -33.4553693], [149.5482348, -33.4554055], [149.5483573, -33.4554761], [149.548489, -33.4555414], [149.5485749, -33.4555799], [149.5486254, -33.4556], [149.5486806, -33.4556198], [149.54874, -33.4556368], [149.5488158, -33.4556521], [149.5488994, -33.4556621], [149.5489887, -33.4556692], [149.5491597, -33.4556775], [149.5493851, -33.4556846], [149.5510246, -33.4557035], [149.5512693, -33.4557097], [149.5514899, -33.455715], [149.551543, -33.4557182], [149.5516086, -33.455724], [149.5516549, -33.4557301], [149.5517139, -33.4557404], [149.5517321, -33.4557447], [149.5518271, -33.4557728], [149.5518761, -33.4557921], [149.5519244, -33.4558136], [149.5520331, -33.455867], [149.5521521, -33.4559292], [149.5521925, -33.4559491], [149.5522286, -33.4559659], [149.5522597, -33.4559785], [149.5522914, -33.4559907], [149.5523293, -33.4560024], [149.552361, -33.4560105], [149.5524217, -33.4560218], [149.552469, -33.4560277], [149.5525233, -33.456031], [149.5526032, -33.4560306], [149.5526806, -33.4560232], [149.5527814, -33.4560077], [149.5528724, -33.4559934], [149.5529313, -33.4559867], [149.5529869, -33.4559831], [149.553046, -33.4559865], [149.5530813, -33.455993], [149.5531316, -33.4560086], [149.5531914, -33.4560339], [149.5532444, -33.4560634], [149.5532909, -33.4560945], [149.5533434, -33.4561335], [149.5533891, -33.4561716], [149.5534284, -33.4562097], [149.5534617, -33.4562547], [149.5534851, -33.456298], [149.5535086, -33.4563546], [149.5535287, -33.4564028], [149.5535382, -33.4564222], [149.5535467, -33.4564356], [149.5535602, -33.4564518], [149.5535759, -33.4564677], [149.5535921, -33.4564799], [149.5536085, -33.4564896], [149.5536437, -33.4565057], [149.5536743, -33.4565156], [149.5537124, -33.4565246], [149.5537626, -33.4565303], [149.5538427, -33.4565318], [149.5539528, -33.4565291], [149.5539941, -33.4565289], [149.5540276, -33.4565294], [149.5540793, -33.4565346], [149.5541387, -33.456547], [149.5541764, -33.456559], [149.5542123, -33.4565743], [149.5542795, -33.4566129], [149.5543627, -33.4566718], [149.5548965, -33.4570905], [149.5550155, -33.457178], [149.5550735, -33.4572126], [149.555139, -33.4572452], [149.5552293, -33.457283], [149.5553449, -33.4573238], [149.5554523, -33.4573599], [149.5556055, -33.4574121], [149.5556823, -33.4574422], [149.5557443, -33.4574707], [149.5557944, -33.4574997], [149.5558469, -33.4575375], [149.5559109, -33.457595], [149.555948, -33.4576347], [149.5559781, -33.4576712], [149.5560126, -33.4577177], [149.5560372, -33.4577521], [149.5560869, -33.4578256], [149.5561276, -33.4578902], [149.5562237, -33.4580593], [149.5562926, -33.4581891], [149.5563203, -33.4582366], [149.5563489, -33.4582781], [149.5563842, -33.4583173], [149.5564243, -33.4583503], [149.5564532, -33.458369], [149.5565068, -33.4583948], [149.5565543, -33.4584098], [149.556584, -33.4584167], [149.556613, -33.4584206], [149.5566547, -33.4584222], [149.5566911, -33.45842], [149.5567697, -33.4584024], [149.5568137, -33.4583847], [149.5568474, -33.4583659], [149.5568926, -33.4583313], [149.5569377, -33.4582858], [149.556988, -33.4582304], [149.557027, -33.4581838], [149.5572207, -33.4579428], [149.5576166, -33.4574085], [149.5578337, -33.4570885], [149.5579102, -33.456969], [149.5579578, -33.4568831], [149.5579804, -33.4568348], [149.5580012, -33.4567857], [149.5580267, -33.4567115], [149.5580701, -33.4565403], [149.5581662, -33.4560669], [149.558202, -33.4558748], [149.5583079, -33.4553285], [149.5583894, -33.454921], [149.5583994, -33.4548696], [149.5584381, -33.4546664], [149.5585013, -33.4543275], [149.558564, -33.4539785], [149.5588335, -33.4524905], [149.5590688, -33.4511786], [149.5593261, -33.4497421], [149.5596265, -33.4480704], [149.5596866, -33.4477295], [149.5597525, -33.447365], [149.5598021, -33.4471088], [149.5598282, -33.4470002], [149.5598534, -33.4469197], [149.5598955, -33.4468223], [149.5599703, -33.4466861], [149.5600584, -33.4465344], [149.560213, -33.446262], [149.560546, -33.4456743], [149.5608303, -33.4451817], [149.5610027, -33.4448798], [149.561028, -33.4448326], [149.5610479, -33.4447848], [149.5610648, -33.4447351], [149.5610732, -33.4447009], [149.5610759, -33.4446639], [149.5610694, -33.4446194], [149.5610478, -33.4445674], [149.5610094, -33.4445161], [149.5609338, -33.4444431], [149.5606948, -33.4442395], [149.5606527, -33.4441982], [149.560598, -33.4441343], [149.5605439, -33.4440503], [149.5605076, -33.4439857], [149.5604683, -33.4438995], [149.5604447, -33.443822], [149.5604345, -33.443769], [149.5604288, -33.4437007], [149.5604287, -33.4436599], [149.560434, -33.4435947], [149.560443, -33.4435355], [149.5604658, -33.443398], [149.5605865, -33.442719], [149.5606194, -33.4425445], [149.5606911, -33.442152], [149.5607443, -33.4418511], [149.5608597, -33.4412272], [149.5610732, -33.4401144], [149.561094, -33.4400079], [149.5611086, -33.4399016], [149.5611118, -33.4398733]]}}, {"type": "Feature", "properties": {"id": "laguna", "length": 3602, "Name": "laguna", "source": "OpenStreetMap / ODbL"}, "geometry": {"type": "LineString", "coordinates": [[-121.7505173, 36.586962], [-121.751036, 36.5868488], [-121.7512184, 36.5868047], [-121.7518958, 36.5866378], [-121.7522151, 36.5865591], [-121.7524919, 36.5864912], [-121.7525545, 36.5864778], [-121.7526207, 36.5864674], [-121.7526861, 36.5864622], [-121.7527522, 36.5864665], [-121.7528174, 36.5864774], [-121.7528811, 36.5864937], [-121.7529391, 36.5865176], [-121.7529944, 36.5865464], [-121.7530435, 36.5865834], [-121.7530855, 36.5866202], [-121.7531199, 36.5866634], [-121.7531543, 36.5867087], [-121.753438, 36.5871462], [-121.7538453, 36.5877702], [-121.7539999, 36.5880075], [-121.7541732, 36.5882728], [-121.754324, 36.5885037], [-121.7543487, 36.5885405], [-121.7543805, 36.5885888], [-121.7544175, 36.5886345], [-121.7544403, 36.5886522], [-121.7544697, 36.5886672], [-121.754499, 36.5886769], [-121.7545349, 36.5886812], [-121.7545708, 36.5886802], [-121.7546033, 36.5886739], [-121.7546317, 36.5886635], [-121.7546624, 36.5886437], [-121.7546998, 36.5886107], [-121.7547477, 36.5885552], [-121.7549866, 36.5882644], [-121.7566371, 36.5864582], [-121.756739, 36.5863467], [-121.7569177, 36.5861254], [-121.7576015, 36.5849079], [-121.7576656, 36.58477], [-121.7577184, 36.5846304], [-121.7577461, 36.5845359], [-121.7577671, 36.5843904], [-121.757775, 36.584261], [-121.7577779, 36.5839197], [-121.7577752, 36.5836062], [-121.7577713, 36.5835328], [-121.7577489, 36.5830839], [-121.7577351, 36.582806], [-121.7577202, 36.582709], [-121.7576898, 36.5826448], [-121.7576536, 36.5826], [-121.7576118, 36.5825599], [-121.757557, 36.5825256], [-121.7574894, 36.5824989], [-121.7574076, 36.5824802], [-121.7573141, 36.5824772], [-121.7572163, 36.5824893], [-121.7571254, 36.5825112], [-121.7570478, 36.5825384], [-121.7569854, 36.5825765], [-121.7569393, 36.5826222], [-121.7569033, 36.5826682], [-121.7568807, 36.582721], [-121.7568649, 36.5827749], [-121.7568625, 36.5828267], [-121.7568791, 36.5828774], [-121.7569945, 36.5831604], [-121.7570239, 36.5832506], [-121.757069, 36.5834213], [-121.7570941, 36.5835596], [-121.7571108, 36.5837305], [-121.7571135, 36.5838999], [-121.7571092, 36.5839762], [-121.7571063, 36.5840404], [-121.7570771, 36.5842251], [-121.7570181, 36.5844912], [-121.756986, 36.584636], [-121.7569703, 36.5846871], [-121.7569492, 36.5847371], [-121.7569197, 36.5847839], [-121.7568829, 36.5848259], [-121.7568382, 36.5848631], [-121.7567862, 36.5848972], [-121.7567289, 36.5849257], [-121.7566681, 36.5849475], [-121.7566042, 36.5849628], [-121.7565386, 36.5849712], [-121.7564732, 36.5849702], [-121.7564077, 36.5849635], [-121.7549583, 36.5846861], [-121.7546225, 36.5846218], [-121.7543249, 36.5845647], [-121.7541914, 36.5845288], [-121.7540689, 36.5844752], [-121.75398, 36.5844172], [-121.7539178, 36.5843612], [-121.7538728, 36.584311], [-121.7538266, 36.5842314], [-121.7537992, 36.5841648], [-121.7537854, 36.584086], [-121.7536789, 36.5830308], [-121.7536723, 36.5829064], [-121.753672, 36.5827952], [-121.7536887, 36.582599], [-121.7537134, 36.582443], [-121.753754, 36.5822728], [-121.7538281, 36.5820466], [-121.7541278, 36.5811973], [-121.7542094, 36.580966], [-121.7542912, 36.5807343], [-121.7543587, 36.5805451], [-121.7543776, 36.5804936], [-121.7543885, 36.5804403], [-121.7543934, 36.5803875], [-121.754391, 36.5803355], [-121.7543799, 36.580284], [-121.7543636, 36.5802356], [-121.7543406, 36.5801873], [-121.7543108, 36.5801398], [-121.7542754, 36.5800948], [-121.7542319, 36.5800541], [-121.7541818, 36.5800177], [-121.7541284, 36.5799894], [-121.7540748, 36.5799645], [-121.7540186, 36.5799428], [-121.7539588, 36.5799263], [-121.7538971, 36.5799098], [-121.7538327, 36.5798984], [-121.7537696, 36.5798912], [-121.7537085, 36.5798851], [-121.7536499, 36.5798827], [-121.7535723, 36.5798825], [-121.7534357, 36.5798921], [-121.7530444, 36.5799317], [-121.7519138, 36.5800986], [-121.7510214, 36.5802061], [-121.7508818, 36.580223], [-121.7506638, 36.5802538], [-121.7503469, 36.5802988], [-121.7501877, 36.5803215], [-121.7500178, 36.580344], [-121.7499702, 36.5803578], [-121.7499253, 36.5803764], [-121.7498846, 36.5804014], [-121.7498535, 36.5804321], [-121.7498291, 36.5804672], [-121.7496282, 36.5807706], [-121.7494728, 36.5810201], [-121.749427, 36.581101], [-121.7493946, 36.5811712], [-121.7493659, 36.5812421], [-121.7493317, 36.5813377], [-121.7493104, 36.581413], [-121.7492716, 36.5815799], [-121.7492419, 36.5817634], [-121.7492284, 36.5819682], [-121.7492243, 36.582172], [-121.749225, 36.5824388], [-121.749223, 36.5826498], [-121.74921, 36.5828248], [-121.7491883, 36.5831318], [-121.7491831, 36.5833353], [-121.7491897, 36.5835259], [-121.7492148, 36.5838521], [-121.7492209, 36.5839795], [-121.7492116, 36.5840865], [-121.7491908, 36.5841777], [-121.7491543, 36.5843072], [-121.7490703, 36.58454], [-121.7490091, 36.584678], [-121.7489918, 36.5847394], [-121.7489913, 36.5847893], [-121.7490027, 36.5848376], [-121.7490315, 36.5848842], [-121.7490821, 36.5849177], [-121.7491447, 36.5849352], [-121.7492451, 36.5849444], [-121.749328, 36.5849493], [-121.7493899, 36.5849604], [-121.7494462, 36.5849807], [-121.7494983, 36.5850142], [-121.7495385, 36.585057], [-121.749564, 36.5851053], [-121.749599, 36.5852365], [-121.7496287, 36.5854162], [-121.7496425, 36.5855659], [-121.7496381, 36.5857249], [-121.7496117, 36.5858668], [-121.7495974, 36.5859894], [-121.7496008, 36.5861177], [-121.749616, 36.5862242], [-121.7496509, 36.5863833], [-121.7497002, 36.5865237], [-121.7497549, 36.5866178], [-121.749821, 36.5866977], [-121.7499098, 36.5867784], [-121.7499946, 36.5868418], [-121.7500881, 36.586896], [-121.7501602, 36.5869276], [-121.7502396, 36.5869502], [-121.7503398, 36.5869685], [-121.7504178, 36.5869731], [-121.7505173, 36.586962]]}}]}